{"epoch":1784710044,"count":18256,"objects":[{"id":"64580","name":"YAM-10","type":"PAYLOAD","l1":"1 64580U 25135BE  26202.62001967  .00001146  00000-0  11882-3 0  9997","l2":"2 64580  97.7755 316.0004 0002145 213.6715 146.4368 14.91915586 58998"},{"id":"68991","name":"YAM-11","type":"PAYLOAD","l1":"1 68991U 26100M   26202.29037372  .00000890  00000-0  96596-4 0  9993","l2":"2 68991  97.7811  98.9599 0009142 341.0261  19.0615 14.90611776 11770"},{"id":"68992","name":"YAM-16","type":"PAYLOAD","l1":"1 68992U 26100N   26202.29944313  .00000878  00000-0  93213-4 0  9995","l2":"2 68992  97.7329  99.0827 0004488  48.4716 311.6887 14.91526587 11781"},{"id":"68993","name":"YAM-13","type":"PAYLOAD","l1":"1 68993U 26100P   26202.64930933  .00001060  00000-0  11446-3 0  9999","l2":"2 68993  97.7856  99.4162 0009048 337.1741  22.9073 14.90423114 11832"},{"id":"68997","name":"YAM-15","type":"PAYLOAD","l1":"1 68997U 26100T   26202.23203115  .00000829  00000-0  90264-4 0  9991","l2":"2 68997  97.7854  99.0313 0008847 352.9621   7.1471 14.90658636 11775"},{"id":"69003","name":"YAM-12","type":"PAYLOAD","l1":"1 69003U 26100Z   26202.54266076  .00002696  00000-0  28186-3 0  9996","l2":"2 69003  97.7852  99.2226 0009441 324.7846  35.2747 14.90467268 11805"},{"id":"69008","name":"YAM-14","type":"PAYLOAD","l1":"1 69008U 26100AE  26202.26747229  .00001053  00000-0  11391-3 0  9990","l2":"2 69008  97.7844  98.9737 0005665  19.8442 340.2995 14.90363389 11760"}]}