{"fetched_at":"2026-07-22T07:10:15.204Z","source":"https://celestrak.org/NORAD/elements/gp.php?NAME=YAM&FORMAT=JSON","constellation":"earthdaily-constellation","records":[{"OBJECT_NAME":"YAM-10","OBJECT_ID":"2025-135BE","EPOCH":"2026-07-21T14:52:49.699488","CLASSIFICATION_TYPE":"U","MEAN_MOTION":14.91915586,"ECCENTRICITY":0.00021447,"INCLINATION":97.7755,"RA_OF_ASC_NODE":316.0004,"ARG_OF_PERICENTER":213.6715,"MEAN_ANOMALY":146.4368,"EPHEMERIS_TYPE":0,"NORAD_CAT_ID":64580,"ELEMENT_SET_NO":999,"REV_AT_EPOCH":5899,"BSTAR":0.00011881796,"MEAN_MOTION_DOT":0.00001146,"MEAN_MOTION_DDOT":0},{"OBJECT_NAME":"YAM-11","OBJECT_ID":"2026-100M","EPOCH":"2026-07-21T06:58:08.289408","CLASSIFICATION_TYPE":"U","MEAN_MOTION":14.90611776,"ECCENTRICITY":0.00091424,"INCLINATION":97.7811,"RA_OF_ASC_NODE":98.9599,"ARG_OF_PERICENTER":341.0261,"MEAN_ANOMALY":19.0615,"EPHEMERIS_TYPE":0,"NORAD_CAT_ID":68991,"ELEMENT_SET_NO":999,"REV_AT_EPOCH":1177,"BSTAR":0.000096595528,"MEAN_MOTION_DOT":0.0000089,"MEAN_MOTION_DDOT":0},{"OBJECT_NAME":"YAM-16","OBJECT_ID":"2026-100N","EPOCH":"2026-07-21T07:11:11.886432","CLASSIFICATION_TYPE":"U","MEAN_MOTION":14.91526587,"ECCENTRICITY":0.0004488,"INCLINATION":97.7329,"RA_OF_ASC_NODE":99.0827,"ARG_OF_PERICENTER":48.4716,"MEAN_ANOMALY":311.6887,"EPHEMERIS_TYPE":0,"NORAD_CAT_ID":68992,"ELEMENT_SET_NO":999,"REV_AT_EPOCH":1178,"BSTAR":0.000093213203,"MEAN_MOTION_DOT":0.00000878,"MEAN_MOTION_DDOT":0},{"OBJECT_NAME":"YAM-13","OBJECT_ID":"2026-100P","EPOCH":"2026-07-21T15:35:00.326112","CLASSIFICATION_TYPE":"U","MEAN_MOTION":14.90423114,"ECCENTRICITY":0.00090477,"INCLINATION":97.7856,"RA_OF_ASC_NODE":99.4162,"ARG_OF_PERICENTER":337.1741,"MEAN_ANOMALY":22.9073,"EPHEMERIS_TYPE":0,"NORAD_CAT_ID":68993,"ELEMENT_SET_NO":999,"REV_AT_EPOCH":1183,"BSTAR":0.00011446235,"MEAN_MOTION_DOT":0.0000106,"MEAN_MOTION_DDOT":0},{"OBJECT_NAME":"YAM-15","OBJECT_ID":"2026-100T","EPOCH":"2026-07-21T05:34:07.491360","CLASSIFICATION_TYPE":"U","MEAN_MOTION":14.90658636,"ECCENTRICITY":0.00088473,"INCLINATION":97.7854,"RA_OF_ASC_NODE":99.0313,"ARG_OF_PERICENTER":352.9621,"MEAN_ANOMALY":7.1471,"EPHEMERIS_TYPE":0,"NORAD_CAT_ID":68997,"ELEMENT_SET_NO":999,"REV_AT_EPOCH":1177,"BSTAR":0.000090264308,"MEAN_MOTION_DOT":0.00000829,"MEAN_MOTION_DDOT":0},{"OBJECT_NAME":"YAM-12","OBJECT_ID":"2026-100Z","EPOCH":"2026-07-21T13:01:25.889664","CLASSIFICATION_TYPE":"U","MEAN_MOTION":14.90467268,"ECCENTRICITY":0.00094407,"INCLINATION":97.7852,"RA_OF_ASC_NODE":99.2226,"ARG_OF_PERICENTER":324.7846,"MEAN_ANOMALY":35.2747,"EPHEMERIS_TYPE":0,"NORAD_CAT_ID":69003,"ELEMENT_SET_NO":999,"REV_AT_EPOCH":1180,"BSTAR":0.00028185707,"MEAN_MOTION_DOT":0.00002696,"MEAN_MOTION_DDOT":0},{"OBJECT_NAME":"YAM-14","OBJECT_ID":"2026-100AE","EPOCH":"2026-07-21T06:25:09.605856","CLASSIFICATION_TYPE":"U","MEAN_MOTION":14.90363389,"ECCENTRICITY":0.00056649,"INCLINATION":97.7844,"RA_OF_ASC_NODE":98.9737,"ARG_OF_PERICENTER":19.8442,"MEAN_ANOMALY":340.2995,"EPHEMERIS_TYPE":0,"NORAD_CAT_ID":69008,"ELEMENT_SET_NO":999,"REV_AT_EPOCH":1176,"BSTAR":0.00011391384,"MEAN_MOTION_DOT":0.00001053,"MEAN_MOTION_DDOT":0}]}
